NORAD_CAT_ID,OBJECT_NAME,OBJECT_TYPE,EPOCH,MEAN_MOTION,ECCENTRICITY,INCLINATION,RA_OF_ASC_NODE,ARG_OF_PERICENTER,MEAN_ANOMALY,BSTAR,MEAN_MOTION_DOT,MEAN_MOTION_DDOT,TLE_LINE0,TLE_LINE1,TLE_LINE2,SEMIMAJOR_AXIS,PERIOD,APOGEE,PERIGEE,DECAYED
51857.0,STARLINK-3571,PAYLOAD,2023-03-20 13:22:00,15.08849533,0.0001373,53.2146,210.4713,56.1079,304.0044,0.00060804,9.405e-05,0.0,0 STARLINK-3571,1 51857U 22022F   23079.55695570  .00009405  00000-0  60804-3 0  9996,2 51857  53.2146 210.4713 0001373  56.1079 304.0044 15.08849533 59206,6917.851,95.437,540.666,538.766,0.0
51857.0,STARLINK-3571,PAYLOAD,2023-03-20 14:57:24,15.08850948,0.0001497,53.215,210.1738,57.303,302.8106,0.00062342,9.651e-05,0.0,0 STARLINK-3571,1 51857U 22022F   23079.62319539  .00009651  00000-0  62342-3 0  9994,2 51857  53.2150 210.1738 0001497  57.3030 302.8106 15.08850948 59210,6917.847,95.437,540.748,538.676,0.0
51857.0,STARLINK-3571,PAYLOAD,2023-03-21 13:12:47,15.0884789,0.0001548,53.2149,206.0108,73.5625,286.5537,0.00031067,4.661e-05,0.0,0 STARLINK-3571,1 51857U 22022F   23080.55055274  .00004661  00000-0  31067-3 0  9997,2 51857  53.2149 206.0108 0001548  73.5625 286.5537 15.08847890 59353,6917.856,95.437,540.792,538.65,0.0
51857.0,STARLINK-3571,PAYLOAD,2023-03-22 11:28:11,15.08844149,0.0001449,53.2165,201.8457,78.5178,281.5977,0.00015113,2.118e-05,0.0,0 STARLINK-3571,1 51857U 22022F   23081.47791164  .00002118  00000-0  15113-3 0  9993,2 51857  53.2165 201.8457 0001449  78.5178 281.5977 15.08844149 59491,6917.868,95.437,540.735,538.73,0.0
51857.0,STARLINK-3571,PAYLOAD,2023-03-22 17:49:43,15.08857668,0.0001371,53.2171,200.6602,77.9011,282.2134,0.00025063,3.705e-05,0.0,0 STARLINK-3571,1 51857U 22022F   23081.74286443  .00003705  00000-0  25063-3 0  9990,2 51857  53.2171 200.6602 0001371  77.9011 282.2134 15.08857668 59538,6917.826,95.436,540.64,538.743,0.0
51857.0,STARLINK-3571,PAYLOAD,2023-03-23 12:54:21,15.0884587,0.000114,53.2151,197.0879,94.6485,265.4637,0.00016057,2.269e-05,0.0,0 STARLINK-3571,1 51857U 22022F   23082.53775050  .00002269  00000-0  16057-3 0  9992,2 51857  53.2151 197.0879 0001140  94.6485 265.4637 15.08845870 59652,6917.862,95.437,540.516,538.939,0.0
51857.0,STARLINK-3571,PAYLOAD,2023-03-23 14:29:44,15.08851338,0.000115,53.2152,196.7889,90.6999,269.4125,0.00020012,2.899e-05,0.0,0 STARLINK-3571,1 51857U 22022F   23082.60398696  .00002899  00000-0  20012-3 0  9992,2 51857  53.2152 196.7889 0001150  90.6999 269.4125 15.08851338 59660,6917.846,95.437,540.506,538.915,0.0
51857.0,STARLINK-3571,PAYLOAD,2023-03-24 12:45:06,15.08894492,0.0001539,53.2161,192.6299,115.7105,244.4046,0.0010256,0.00016096,0.0,0 STARLINK-3571,1 51857U 22022F   23083.53132243  .00016096  00000-0  10256-2 0  9991,2 51857  53.2161 192.6299 0001539 115.7105 244.4046 15.08894492 59808,6917.714,95.434,540.643,538.514,0.0
51857.0,STARLINK-3571,PAYLOAD,2023-03-24 15:55:51,15.08905024,0.000142,53.2159,192.0352,115.043,245.0709,0.001012,0.00015883,0.0,0 STARLINK-3571,1 51857U 22022F   23083.66379264  .00015883  00000-0  10120-2 0  9994,2 51857  53.2159 192.0352 0001420 115.0430 245.0709 15.08905024 59821,6917.682,95.433,540.529,538.564,0.0
51857.0,STARLINK-3571,PAYLOAD,2023-03-24 23:52:47,15.08875077,0.0001557,53.2154,190.549,81.9896,278.1273,0.00038881,5.911e-05,0.0,0 STARLINK-3571,1 51857U 22022F   23083.99499811  .00005911  00000-0  38881-3 0  9997,2 51857  53.2154 190.5490 0001557  81.9896 278.1273 15.08875077 59872,6917.773,95.435,540.715,538.561,0.0
51857.0,STARLINK-3571,PAYLOAD,2023-03-25 12:35:55,15.08801448,0.0001554,53.2158,188.1716,107.4611,252.6551,-0.0012147,-0.00019548,0.0,0 STARLINK-3571,1 51857U 22022F   23084.52494397 -.00019548  00000-0 -12147-2 0  9990,2 51857  53.2158 188.1716 0001554 107.4611 252.6551 15.08801448 59952,6917.998,95.44,540.938,538.788,0.0
51857.0,STARLINK-3571,PAYLOAD,2023-03-25 17:22:04,15.08809527,0.0001162,53.2146,187.2768,101.154,258.9583,-0.00079157,-0.00012853,0.0,0 STARLINK-3571,1 51857U 22022F   23084.72366598 -.00012853  00000-0 -79157-3 0  9990,2 51857  53.2146 187.2768 0001162 101.1540 258.9583 15.08809527 59986,6917.974,95.439,540.642,539.035,0.0
51857.0,STARLINK-3571,PAYLOAD,2023-03-26 12:26:44,15.08817662,0.0001467,53.2148,183.7099,94.4084,265.7076,0.0014352,0.00022613,0.0,0 STARLINK-3571,1 51857U 22022F   23085.51856922  .00022613  00000-0  14352-2 0  9991,2 51857  53.2148 183.7099 0001467  94.4084 265.7076 15.08817662 60109,6917.949,95.439,540.829,538.799,0.0
51857.0,STARLINK-3571,PAYLOAD,2023-03-26 18:48:16,15.08840659,0.0001432,53.214,182.5184,87.6235,272.4921,0.001827,0.00028909,0.0,0 STARLINK-3571,1 51857U 22022F   23085.78352940  .00028909  00000-0  18270-2 0  9998,2 51857  53.2140 182.5184 0001432  87.6235 272.4921 15.08840659 60147,6917.878,95.438,540.734,538.753,0.0
51857.0,STARLINK-3571,PAYLOAD,2023-03-27 12:17:30,15.08871399,0.0001469,53.2145,179.2458,85.205,274.911,0.0016136,0.00025508,0.0,0 STARLINK-3571,1 51857U 22022F   23086.51216262  .00025508  00000-0  16136-2 0  9997,2 51857  53.2145 179.2458 0001469  85.2050 274.9110 15.08871399 60252,6917.784,95.436,540.666,538.633,0.0
51857.0,STARLINK-3571,PAYLOAD,2023-03-27 13:52:53,15.08875654,0.0001414,53.2142,178.948,85.509,274.6063,0.0016226,0.00025655,0.0,0 STARLINK-3571,1 51857U 22022F   23086.57840067  .00025655  00000-0  16226-2 0  9992,2 51857  53.2142 178.9480 0001414  85.5090 274.6063 15.08875654 60260,6917.771,95.435,540.615,538.658,0.0
51857.0,STARLINK-3571,PAYLOAD,2023-03-27 15:28:16,15.08880026,0.0001468,53.2148,178.6507,84.8654,275.2506,0.0016928,0.00026785,0.0,0 STARLINK-3571,1 51857U 22022F   23086.64463891  .00026785  00000-0  16928-2 0  9990,2 51857  53.2148 178.6507 0001468  84.8654 275.2506 15.08880026 60279,6917.758,95.435,540.639,538.608,0.0
51857.0,STARLINK-3571,PAYLOAD,2023-03-28 05:46:45,15.08860638,0.000245,53.2144,175.9762,91.9378,268.1895,0.0014702,0.00023201,0.0,0 STARLINK-3571,1 51857U 22022F   23087.24079967  .00023201  00000-0  14702-2 0  9992,2 51857  53.2144 175.9762 0002450  91.9378 268.1895 15.08860638 60361,6917.817,95.436,541.377,537.987,0.0
51857.0,STARLINK-3571,PAYLOAD,2023-03-28 12:08:17,15.08864691,0.0001529,53.2145,174.786,98.0352,262.0813,0.0007366,0.00011462,0.0,0 STARLINK-3571,1 51857U 22022F   23087.50575428  .00011462  00000-0  73660-3 0  9999,2 51857  53.2145 174.7860 0001529  98.0352 262.0813 15.08864691 60405,6917.805,95.436,540.728,538.612,0.0
51857.0,STARLINK-3571,PAYLOAD,2023-03-28 16:54:26,15.08868388,0.0001543,53.2144,173.894,102.2488,257.8677,0.0018525,0.00029341,0.0,0 STARLINK-3571,1 51857U 22022F   23087.70447249  .00029341  00000-0  18525-2 0  9993,2 51857  53.2144 173.8940 0001543 102.2488 257.8677 15.08868388 60437,6917.794,95.436,540.726,538.591,0.0
51857.0,STARLINK-3571,PAYLOAD,2023-03-29 11:59:03,15.08916252,0.0001798,53.2161,170.3289,96.5798,263.5399,0.0045288,0.00072684,0.0,0 STARLINK-3571,1 51857U 22022F   23088.49935031  .00072684  00000-0  45288-2 0  9995,2 51857  53.2161 170.3289 0001798  96.5798 263.5399 15.08916252 60557,6917.647,95.433,540.756,538.269,0.0
51857.0,STARLINK-3571,PAYLOAD,2023-03-29 16:45:12,15.08945117,0.0001391,53.2144,169.4352,55.8754,304.237,0.0022836,0.00036348,0.0,0 STARLINK-3571,1 51857U 22022F   23088.69805800  .00036348  00000-0  22836-2 0  9998,2 51857  53.2144 169.4352 0001391  55.8754 304.2370 15.08945117 60584,6917.559,95.431,540.386,538.462,0.0
51857.0,STARLINK-3571,PAYLOAD,2023-03-30 05:28:17,15.0884683,0.0001292,53.2149,167.0553,107.2181,252.8953,0.0013931,0.00021957,0.0,0 STARLINK-3571,1 51857U 22022F   23089.22798083  .00021957  00000-0  13931-2 0  9998,2 51857  53.2149 167.0553 0001292 107.2181 252.8953 15.08846830 60668,6917.86,95.437,540.618,538.831,0.0
51857.0,STARLINK-3571,PAYLOAD,2023-03-30 11:49:50,15.08843015,0.0001088,53.2151,165.8651,96.6827,263.4289,0.0013764,0.00021687,0.0,0 STARLINK-3571,1 51857U 22022F   23089.49294223  .00021687  00000-0  13764-2 0  9998,2 51857  53.2151 165.8651 0001088  96.6827 263.4289 15.08843015 60704,6917.871,95.437,540.489,538.984,0.0
51857.0,STARLINK-3571,PAYLOAD,2023-03-30 16:35:59,15.0885637,0.0001234,53.2158,164.9724,88.8759,271.2375,0.0018976,0.00030055,0.0,0 STARLINK-3571,1 51857U 22022F   23089.69166132  .00030055  00000-0  18976-2 0  9996,2 51857  53.2158 164.9724 0001234  88.8759 271.2375 15.08856370 60736,6917.83,95.437,540.549,538.842,0.0
51857.0,STARLINK-3571,PAYLOAD,2023-03-31 05:19:06,15.08817698,0.0001512,53.2161,162.5972,74.6329,285.483,0.00094833,0.00014828,0.0,0 STARLINK-3571,1 51857U 22022F   23090.22159806  .00014828  00000-0  94833-3 0  9994,2 51857  53.2161 162.5972 0001512  74.6329 285.4830 15.08817698 60816,6917.949,95.439,540.86,538.768,0.0
51857.0,STARLINK-3571,PAYLOAD,2023-03-31 16:26:48,15.08848033,0.0001275,53.2148,160.5134,107.963,252.1501,0.0025583,0.00040672,0.0,0 STARLINK-3571,1 51857U 22022F   23090.68527948  .00040672  00000-0  25583-2 0  9991,2 51857  53.2148 160.5134 0001275 107.9630 252.1501 15.08848033 60880,6917.856,95.437,540.603,538.839,0.0
51857.0,STARLINK-3571,PAYLOAD,2023-04-01 05:09:54,15.08831286,0.0001711,53.2157,158.1346,99.0201,261.0984,0.0011249,0.00017656,0.0,0 STARLINK-3571,1 51857U 22022F   23091.21520943  .00017656  00000-0  11249-2 0  9999,2 51857  53.2157 158.1346 0001711  99.0201 261.0984 15.08831286 60963,6917.907,95.438,540.956,538.588,0.0
51857.0,STARLINK-3571,PAYLOAD,2023-04-01 09:56:03,15.08824192,0.0001337,53.2156,157.2434,102.697,257.4172,0.00040473,6.156e-05,0.0,0 STARLINK-3571,1 51857U 22022F   23091.41393154  .00006156  00000-0  40473-3 0  9998,2 51857  53.2156 157.2434 0001337 102.6970 257.4172 15.08824192 60997,6917.929,95.439,540.719,538.869,0.0
51857.0,STARLINK-3571,PAYLOAD,2023-04-01 14:42:13,15.08831926,0.0001442,53.2158,156.3507,108.2749,251.84,0.00087434,0.00013651,0.0,0 STARLINK-3571,1 51857U 22022F   23091.61265272  .00013651  00000-0  87434-3 0  9995,2 51857  53.2158 156.3507 0001442 108.2749 251.8400 15.08831926 61023,6917.905,95.438,540.768,538.773,0.0
